start=new Date('2022-11-09T00:00:00.000Z').valueOf();
sats=[{"REF_FRAME":"TEME","CENTER_NAME":"EARTH","DECAY_DATE":null,"COUNTRY_CODE":"US","ECCENTRICITY":"0.00015920","MEAN_ANOMALY":"288.9793","TIME_SYSTEM":"UTC","SEMIMAJOR_AXIS":"6925.286","MEAN_MOTION_DDOT":"0.0000000000000","BSTAR":"0.00013552000000","EPHEMERIS_TYPE":"0","PERIOD":"95.591","MEAN_ELEMENT_THEORY":"SGP4","RA_OF_ASC_NODE":"209.9182","LAUNCH_DATE":"2020-03-18","PERIAPSIS":"546.048","NORAD_CAT_ID":"45387","MEAN_MOTION":"15.06420567","MEAN_MOTION_DOT":"0.00001739","FILE":"3649076","TLE_LINE1":"1 45387U 20019AD  22312.69623983  .00001739  00000-0  13552-3 0  9994","REV_AT_EPOCH":"14657","INCLINATION":"53.0548","GP_ID":"217199201","TLE_LINE2":"2 45387  53.0548 209.9182 0001592  71.1368 288.9793 15.06420567146573","ELEMENT_SET_NO":"999","OBJECT_TYPE":"PAYLOAD","ARG_OF_PERICENTER":"71.1368","OBJECT_ID":"2020-019AD","APOAPSIS":"548.253","CLASSIFICATION_TYPE":"U","EPOCH":"2022-11-08T16:42:35.121312","OBJECT_NAME":"STARLINK-1274","SITE":"AFETR","RCS_SIZE":"LARGE"},{"TIME_SYSTEM":"UTC","SEMIMAJOR_AXIS":"6925.319","MEAN_MOTION_DDOT":"0.0000000000000","EPHEMERIS_TYPE":"0","BSTAR":"0.00014102000000","PERIOD":"95.592","MEAN_ELEMENT_THEORY":"SGP4","RA_OF_ASC_NODE":"232.1456","LAUNCH_DATE":"2020-03-18","PERIAPSIS":"546.007","NORAD_CAT_ID":"45388","MEAN_MOTION":"15.06409587","MEAN_MOTION_DOT":"0.00001820","REF_FRAME":"TEME","CENTER_NAME":"EARTH","DECAY_DATE":null,"ECCENTRICITY":"0.00017000","COUNTRY_CODE":"US","MEAN_ANOMALY":"310.0006","ELEMENT_SET_NO":"999","OBJECT_TYPE":"PAYLOAD","ARG_OF_PERICENTER":"50.1133","OBJECT_ID":"2020-019AE","APOAPSIS":"548.361","CLASSIFICATION_TYPE":"U","OBJECT_NAME":"STARLINK-1280","EPOCH":"2022-11-08T04:48:42.670368","SITE":"AFETR","RCS_SIZE":"LARGE","FILE":"3648805","TLE_LINE1":"1 45388U 20019AE  22312.20049387  .00001820  00000-0  14102-3 0  9995","REV_AT_EPOCH":"14621","INCLINATION":"53.0555","GP_ID":"217167175","TLE_LINE2":"2 45388  53.0555 232.1456 0001700  50.1133 310.0006 15.06409587146216"},{"DECAY_DATE":null,"COUNTRY_CODE":"US","ECCENTRICITY":"0.00017060","MEAN_ANOMALY":"309.0477","CENTER_NAME":"EARTH","REF_FRAME":"TEME","MEAN_MOTION":"15.06420741","MEAN_MOTION_DOT":"0.00000081","PERIAPSIS":"545.969","NORAD_CAT_ID":"45389","RA_OF_ASC_NODE":"211.0482","LAUNCH_DATE":"2020-03-18","MEAN_ELEMENT_THEORY":"SGP4","BSTAR":"0.00002434000000","EPHEMERIS_TYPE":"0","PERIOD":"95.591","MEAN_MOTION_DDOT":"0.0000000000000","TIME_SYSTEM":"UTC","SEMIMAJOR_AXIS":"6925.285","TLE_LINE2":"2 45389  53.0529 211.0482 0001706  51.0664 309.0477 15.06420741146549","GP_ID":"217167425","FILE":"3648805","REV_AT_EPOCH":"14654","TLE_LINE1":"1 45389U 20019AF  22312.44559361  .00000081  00000-0  24340-4 0  9994","INCLINATION":"53.0529","RCS_SIZE":"LARGE","OBJECT_NAME":"STARLINK-1283","EPOCH":"2022-11-08T10:41:39.287904","CLASSIFICATION_TYPE":"U","SITE":"AFETR","OBJECT_ID":"2020-019AF","APOAPSIS":"548.331","ARG_OF_PERICENTER":"51.0664","ELEMENT_SET_NO":"999","OBJECT_TYPE":"PAYLOAD"},{"TIME_SYSTEM":"UTC","SEMIMAJOR_AXIS":"6925.298","MEAN_MOTION_DDOT":"0.0000000000000","PERIOD":"95.591","EPHEMERIS_TYPE":"0","BSTAR":"0.00028691000000","MEAN_ELEMENT_THEORY":"SGP4","LAUNCH_DATE":"2020-03-18","RA_OF_ASC_NODE":"209.9645","NORAD_CAT_ID":"45390","PERIAPSIS":"546.042","MEAN_MOTION_DOT":"0.00003996","MEAN_MOTION":"15.06416571","REF_FRAME":"TEME","CENTER_NAME":"EARTH","MEAN_ANOMALY":"287.9000","DECAY_DATE":null,"ECCENTRICITY":"0.00016190","COUNTRY_CODE":"US","ELEMENT_SET_NO":"999","OBJECT_TYPE":"PAYLOAD","ARG_OF_PERICENTER":"72.2165","APOAPSIS":"548.284","OBJECT_ID":"2020-019AG","SITE":"AFETR","EPOCH":"2022-11-08T16:26:39.967584","OBJECT_NAME":"STARLINK-1284","CLASSIFICATION_TYPE":"U","RCS_SIZE":"LARGE","INCLINATION":"53.0558","TLE_LINE1":"1 45390U 20019AG  22312.68518481  .00003996  00000-0  28691-3 0  9990","REV_AT_EPOCH":"14657","FILE":"3649076","GP_ID":"217198968","TLE_LINE2":"2 45390  53.0558 209.9645 0001619  72.2165 287.9000 15.06416571146579"},{"MEAN_MOTION":"15.06406403","MEAN_MOTION_DOT":"0.00002321","RA_OF_ASC_NODE":"209.9043","LAUNCH_DATE":"2020-03-18","PERIAPSIS":"546.229","NORAD_CAT_ID":"45391","EPHEMERIS_TYPE":"0","BSTAR":"0.00017463000000","PERIOD":"95.592","MEAN_ELEMENT_THEORY":"SGP4","TIME_SYSTEM":"UTC","SEMIMAJOR_AXIS":"6925.329","MEAN_MOTION_DDOT":"0.0000000000000","DECAY_DATE":null,"COUNTRY_CODE":"US","ECCENTRICITY":"0.00013940","MEAN_ANOMALY":"259.2356","REF_FRAME":"TEME","CENTER_NAME":"EARTH","RCS_SIZE":"LARGE","OBJECT_NAME":"STARLINK-1289","EPOCH":"2022-11-08T16:46:32.866464","CLASSIFICATION_TYPE":"U","SITE":"AFETR","ARG_OF_PERICENTER":"100.8790","OBJECT_ID":"2020-019AH","APOAPSIS":"548.159","OBJECT_TYPE":"PAYLOAD","ELEMENT_SET_NO":"999","TLE_LINE2":"2 45391  53.0557 209.9043 0001394 100.8790 259.2356 15.06406403146303","FILE":"3649076","INCLINATION":"53.0557","TLE_LINE1":"1 45391U 20019AH  22312.69899151  .00002321  00000-0  17463-3 0  9994","REV_AT_EPOCH":"14630","GP_ID":"217199694"},{"GP_ID":"217167676","INCLINATION":"52.9925","TLE_LINE1":"1 45392U 20019AJ  22312.39502740  .00031675  00000-0  14719-2 0  9991","REV_AT_EPOCH":"14650","FILE":"3648805","TLE_LINE2":"2 45392  52.9925 189.5903 0004118 137.8916 222.2395 15.19732041146505","ELEMENT_SET_NO":"999","OBJECT_TYPE":"PAYLOAD","APOAPSIS":"509.487","OBJECT_ID":"2020-019AJ","ARG_OF_PERICENTER":"137.8916","SITE":"AFETR","CLASSIFICATION_TYPE":"U","OBJECT_NAME":"STARLINK-1290","EPOCH":"2022-11-08T09:28:50.367360","RCS_SIZE":"LARGE","CENTER_NAME":"EARTH","REF_FRAME":"TEME","MEAN_ANOMALY":"222.2395","DECAY_DATE":null,"COUNTRY_CODE":"US","ECCENTRICITY":"0.00041180","MEAN_MOTION_DDOT":"0.0000000000000","SEMIMAJOR_AXIS":"6884.787","TIME_SYSTEM":"UTC","MEAN_ELEMENT_THEORY":"SGP4","PERIOD":"94.754","BSTAR":"0.00147190000000","EPHEMERIS_TYPE":"0","NORAD_CAT_ID":"45392","PERIAPSIS":"503.817","LAUNCH_DATE":"2020-03-18","RA_OF_ASC_NODE":"189.5903","MEAN_MOTION_DOT":"0.00031675","MEAN_MOTION":"15.19732041"},{"MEAN_ANOMALY":"299.0760","DECAY_DATE":null,"ECCENTRICITY":"0.00017750","COUNTRY_CODE":"US","CENTER_NAME":"EARTH","REF_FRAME":"TEME","MEAN_MOTION_DOT":"0.00006938","MEAN_MOTION":"15.06424693","NORAD_CAT_ID":"45393","PERIAPSIS":"545.909","LAUNCH_DATE":"2020-03-18","RA_OF_ASC_NODE":"209.7690","MEAN_ELEMENT_THEORY":"SGP4","PERIOD":"95.591","BSTAR":"0.00048386000000","EPHEMERIS_TYPE":"0","MEAN_MOTION_DDOT":"0.0000000000000","TIME_SYSTEM":"UTC","SEMIMAJOR_AXIS":"6925.273","TLE_LINE2":"2 45393  53.0547 209.7690 0001775  61.0407 299.0760 15.06424693146342","GP_ID":"217198217","TLE_LINE1":"1 45393U 20019AK  22312.72941966  .00006938  00000-0  48386-3 0  9998","INCLINATION":"53.0547","REV_AT_EPOCH":"14634","FILE":"3649076","RCS_SIZE":"LARGE","SITE":"AFETR","CLASSIFICATION_TYPE":"U","OBJECT_NAME":"STARLINK-1291","EPOCH":"2022-11-08T17:30:21.858624","APOAPSIS":"548.367","OBJECT_ID":"2020-019AK","ARG_OF_PERICENTER":"61.0407","ELEMENT_SET_NO":"999","OBJECT_TYPE":"PAYLOAD"},{"EPHEMERIS_TYPE":"0","BSTAR":"0.00055605000000","PERIOD":"95.591","MEAN_ELEMENT_THEORY":"SGP4","TIME_SYSTEM":"UTC","SEMIMAJOR_AXIS":"6925.313","MEAN_MOTION_DDOT":"0.0000000000000","MEAN_MOTION":"15.06411448","MEAN_MOTION_DOT":"0.00008013","RA_OF_ASC_NODE":"212.6223","LAUNCH_DATE":"2020-03-18","PERIAPSIS":"546.131","NORAD_CAT_ID":"45394","REF_FRAME":"TEME","CENTER_NAME":"EARTH","DECAY_DATE":null,"COUNTRY_CODE":"US","ECCENTRICITY":"0.00015120","MEAN_ANOMALY":"297.4020","ARG_OF_PERICENTER":"62.7123","OBJECT_ID":"2020-019AL","APOAPSIS":"548.226","OBJECT_TYPE":"PAYLOAD","ELEMENT_SET_NO":"999","RCS_SIZE":"LARGE","OBJECT_NAME":"STARLINK-1292","CLASSIFICATION_TYPE":"U","EPOCH":"2022-11-08T02:17:26.850624","SITE":"AFETR","FILE":"3648805","REV_AT_EPOCH":"14622","TLE_LINE1":"1 45394U 20019AL  22312.09544966  .00008013  00000-0  55605-3 0  9996","INCLINATION":"53.0532","GP_ID":"217168175","TLE_LINE2":"2 45394  53.0532 212.6223 0001512  62.7123 297.4020 15.06411448146226"},{"RCS_SIZE":"LARGE","OBJECT_NAME":"STARLINK-1297","EPOCH":"2022-11-08T02:59:54.733920","CLASSIFICATION_TYPE":"U","SITE":"AFETR","ARG_OF_PERICENTER":"73.7290","OBJECT_ID":"2020-019AM","APOAPSIS":"548.431","ELEMENT_SET_NO":"999","OBJECT_TYPE":"PAYLOAD","TLE_LINE2":"2 45395  53.0551 212.4755 0001783  73.7290 286.3895 15.06405741145677","FILE":"3648805","TLE_LINE1":"1 45395U 20019AM  22312.12493905  .00005497  00000-0  38757-3 0  9999","INCLINATION":"53.0551","REV_AT_EPOCH":"14567","GP_ID":"217168919","MEAN_MOTION":"15.06405741","MEAN_MOTION_DOT":"0.00005497","RA_OF_ASC_NODE":"212.4755","LAUNCH_DATE":"2020-03-18","PERIAPSIS":"545.961","NORAD_CAT_ID":"45395","BSTAR":"0.00038757000000","EPHEMERIS_TYPE":"0","PERIOD":"95.592","MEAN_ELEMENT_THEORY":"SGP4","SEMIMAJOR_AXIS":"6925.331","TIME_SYSTEM":"UTC","MEAN_MOTION_DDOT":"0.0000000000000","ECCENTRICITY":"0.00017830","DECAY_DATE":null,"COUNTRY_CODE":"US","MEAN_ANOMALY":"286.3895","REF_FRAME":"TEME","CENTER_NAME":"EARTH"},{"DECAY_DATE":null,"COUNTRY_CODE":"US","ECCENTRICITY":"0.00017210","MEAN_ANOMALY":"302.0357","CENTER_NAME":"EARTH","REF_FRAME":"TEME","MEAN_MOTION":"15.06429740","MEAN_MOTION_DOT":"0.00008838","PERIAPSIS":"545.931","NORAD_CAT_ID":"45396","RA_OF_ASC_NODE":"209.8783","LAUNCH_DATE":"2020-03-18","MEAN_ELEMENT_THEORY":"SGP4","BSTAR":"0.00061098000000","EPHEMERIS_TYPE":"0","PERIOD":"95.590","MEAN_MOTION_DDOT":"0.0000000000000","SEMIMAJOR_AXIS":"6925.257","TIME_SYSTEM":"UTC","TLE_LINE2":"2 45396  53.0539 209.8783 0001721  58.0799 302.0357 15.06429740146290","GP_ID":"217198461","FILE":"3649076","INCLINATION":"53.0539","TLE_LINE1":"1 45396U 20019AN  22312.70361968  .00008838  00000-0  61098-3 0  9993","REV_AT_EPOCH":"14629","RCS_SIZE":"LARGE","EPOCH":"2022-11-08T16:53:12.740352","OBJECT_NAME":"STARLINK-1303","CLASSIFICATION_TYPE":"U","SITE":"AFETR","OBJECT_ID":"2020-019AN","APOAPSIS":"548.314","ARG_OF_PERICENTER":"58.0799","OBJECT_TYPE":"PAYLOAD","ELEMENT_SET_NO":"999"}];
